QIANFAN-57              
1 62787U 25016C   25274.98260275  .00000104  00000+0  14230-3 0  9990
2 62787  88.9754 110.6100 0001991  61.5546 298.5805 13.50973680 37514
QIANFAN-58              
1 62788U 25016D   25274.95373332  .00000098  00000+0  13308-3 0  9994
2 62788  88.9725 110.4668 0013498 183.6517 176.4538 13.50973225 37555
QIANFAN-59              
1 62789U 25016E   25274.97839635  .00000108  00000+0  14856-3 0  9991
2 62789  88.9749 110.5209 0013765 187.6414 172.4529 13.50972468 37555
QIANFAN-60              
1 62790U 25016F   25273.45632892  .00000063  00000+0  77135-4 0  9991
2 62790  88.9732 110.6637 0014892 189.3455 170.7422 13.52524324 37336
QIANFAN-61              
1 62791U 25016G   25274.97014740  .00000094  00000+0  12691-3 0  9995
2 62791  88.9797 110.6210 0014349 183.6377 176.4672 13.50972832 37555
QIANFAN-62              
1 62792U 25016H   25274.97432854  .00000098  00000+0  13333-3 0  9994
2 62792  88.9744 110.5278 0015710 184.6187 175.4822 13.50966781 37545
QIANFAN-63              
1 62793U 25016J   25274.99894538  .00000094  00000+0  12757-3 0  9993
2 62793  88.9749 110.4719 0015617 190.0201 170.0641 13.50969639 37583
QIANFAN-64              
1 62794U 25016K   25274.96603984  .00000105  00000+0  14327-3 0  9992
2 62794  88.9737 110.4591 0013765 181.9723 178.1376 13.50971417 37579
